H1 CPF 01  gfz 2022 10 13 12  7862 terrasarx 
H2 0702601  6201 31698    2022 10 13 12 59 42 2022 10 18 00 00 42   120 1 1  0 0 0
H9
10 0 59867  56142.000000  0    3976186.257   2090866.936   5212524.178
10 0 59867  56262.000000  0    3440257.240   1567431.418   5748506.983
10 0 59867  56382.000000  0    2834945.593   1026611.995   6183398.608
10 0 59867  56502.000000  0    2170626.866    478981.522   6509591.447
10 0 59867  56622.000000  0    1458880.570    -64967.414   6721384.964
10 0 59867  56742.000000  0     712286.083   -595022.414   6815081.662
10 0 59867  56862.000000  0     -55801.637  -1101443.138   6789047.656
10 0 59867  56982.000000  0    -831491.087  -1575139.645   6643738.566
10 0 59867  57102.000000  0   -1600604.872  -2007835.615   6381690.972
10 0 59867  57222.000000  0   -2348936.714  -2392212.377   6007479.722
10 0 59867  57342.000000  0   -3062512.296  -2722033.190   5527645.325
10 0 59867  57462.000000  0   -3727854.131  -2992247.949   4950587.661
10 0 59867  57582.000000  0   -4332241.148  -3199072.976   4286422.969
10 0 59867  57702.000000  0   -4863956.940  -3340044.755   3546810.250
10 0 59867  57822.000000  0   -5312522.898  -3414046.782   2744749.470
10 0 59867  57942.000000  0   -5668912.160  -3421309.763   1894353.966
10 0 59867  58062.000000  0   -5925738.232  -3363384.259   1010598.219
10 0 59867  58182.000000  0   -6077411.934  -3243084.713    109047.518
10 0 59867  58302.000000  0   -6120263.671  -3064407.400   -794423.944
10 0 59867  58422.000000  0   -6052627.624  -2832424.179  -1683922.494
10 0 59867  58542.000000  0   -5874883.388  -2553153.704  -2543823.878
10 0 59867  58662.000000  0   -5589456.471  -2233415.225  -3359053.341
10 0 59867  58782.000000  0   -5200778.535  -1880668.761  -4115353.124
10 0 59867  58902.000000  0   -4715208.606  -1502845.531  -4799531.097
10 0 59867  59022.000000  0   -4140918.384  -1108173.171  -5399687.144
10 0 59867  59142.000000  0   -3487743.717   -704999.253  -5905412.862
10 0 59867  59262.000000  0   -2767007.375   -301617.851  -6307961.468
10 0 59867  59382.000000  0   -1991317.459     93897.360  -6600387.423
10 0 59867  59502.000000  0   -1174344.452    473849.856  -6777654.758
10 0 59867  59622.000000  0    -330582.630    831064.963  -6836713.925
10 0 59867  59742.000000  0     524901.497   1159021.798  -6776547.873
10 0 59867  59862.000000  0    1376730.518   1451968.205  -6598188.960
10 0 59867  59982.000000  0    2209487.209   1705020.190  -6304704.975
10 0 59867  60102.000000  0    3007988.526   1914242.866  -5901151.734
10 0 59867  60222.000000  0    3757558.884   2076711.216  -5394493.808
10 0 59867  60342.000000  0    4444298.309   2190550.639  -4793495.824
10 0 59867  60462.000000  0    5055343.855   2254956.934  -4108582.431
10 0 59867  60582.000000  0    5579116.694   2270194.037  -3351666.830
10 0 59867  60702.000000  0    6005549.743   2237569.649  -2535951.841
10 0 59867  60822.000000  0    6326292.773   2159389.258  -1675704.450
10 0 59867  60942.000000  0    6534886.454   2038888.710   -786005.876
10 0 59867  61062.000000  0    6626902.056   1880146.342    117516.013
10 0 59867  61182.000000  0    6600040.631   1687976.402   1018968.666
10 0 59867  61302.000000  0    6454190.188   1467807.607   1902480.547
10 0 59867  61422.000000  0    6191441.342   1225548.752   2752490.338
10 0 59867  61542.000000  0    5816055.708    967444.460   3554029.595
10 0 59867  61662.000000  0    5334391.306    699926.055   4292993.251
10 0 59867  61782.000000  0    4754785.567    429460.612   4956390.623
10 0 59867  61902.000000  0    4087402.418    162403.121   5532574.578
10 0 59867  62022.000000  0    3344043.292    -95146.888   6011444.529
10 0 59867  62142.000000  0    2537929.191   -337478.337   6384617.410
10 0 59867  62262.000000  0    1683460.299   -559389.962   6645568.446
10 0 59867  62382.000000  0     795955.050   -756298.397   6789740.484
10 0 59867  62502.000000  0    -108627.518   -924330.678   6814618.506
10 0 59867  62622.000000  0   -1013974.722  -1060399.226   6719769.537
10 0 59867  62742.000000  0   -1903713.242  -1162258.644   6506848.926
10 0 59867  62862.000000  0   -2761703.375  -1228542.430   6179572.510
10 0 59867  62982.000000  0   -3572330.681  -1258779.638   5743657.409
10 0 59867  63102.000000  0   -4320793.780  -1253392.372   5206729.617
10 0 59867  63222.000000  0   -4993380.591  -1213673.891   4578196.532
10 0 59867  63342.000000  0   -5577727.302  -1141746.321   3869086.463
10 0 59867  63462.000000  0   -6063053.755  -1040499.216   3091857.590
10 0 59867  63582.000000  0   -6440371.108   -913510.362   2260181.045
10 0 59867  63702.000000  0   -6702659.666   -764950.671   1388699.476
10 0 59867  63822.000000  0   -6845008.241   -599475.097    492762.785
10 0 59867  63942.000000  0   -6864710.569   -422102.367   -411850.246
10 0 59867  64062.000000  0   -6761317.968   -238086.416  -1309218.839
10 0 59867  64182.000000  0   -6536645.322    -52782.861  -2183569.160
10 0 59867  64302.000000  0   -6194733.348    128485.119  -3019557.568
10 0 59867  64422.000000  0   -5741766.992    300559.447  -3802546.324
10 0 59867  64542.000000  0   -5185950.157    458574.587  -4518861.697
10 0 59867  64662.000000  0   -4537343.802    598075.937  -5156030.131
10 0 59867  64782.000000  0   -3807671.222    715127.414  -5702988.683
10 0 59867  64902.000000  0   -3010096.233    806404.837  -6150267.734
10 0 59867  65022.000000  0   -2158979.174    869273.689  -6490142.791
10 0 59867  65142.000000  0   -1269616.736    901851.005  -6716756.843
10 0 59867  65262.000000  0    -357967.989    903050.061  -6826210.484
10 0 59867  65382.000000  0     559625.951    872606.755  -6816620.327
10 0 59867  65502.000000  0    1466726.519    811087.671  -6688149.766
10 0 59867  65622.000000  0    2347086.718    719879.871  -6443007.966
10 0 59867  65742.000000  0    3184936.431    601162.574  -6085415.644
10 0 59867  65862.000000  0    3965261.187    457861.044  -5621539.201
10 0 59867  65982.000000  0    4674069.499    293582.351  -5059394.688
10 0 59867  66102.000000  0    5298647.028    112535.556  -4408721.353
10 0 59867  66222.000000  0    5827792.139    -80563.682  -3680823.155
10 0 59867  66342.000000  0    6252026.123   -280602.055  -2888381.077
10 0 59867  66462.000000  0    6563775.414   -482189.127  -2045238.919
10 0 59867  66582.000000  0    6757520.151   -679786.729  -1166163.126
10 0 59867  66702.000000  0    6829903.433   -867843.640   -266582.232
10 0 59867  66822.000000  0    6779799.105  -1040932.894    637688.551
10 0 59867  66942.000000  0    6608335.208  -1193888.179   1530733.110
10 0 59867  67062.000000  0    6318872.464  -1321935.968   2396823.171
10 0 59867  67182.000000  0    5916936.454  -1420818.936   3220705.349
10 0 59867  67302.000000  0    5410106.171  -1486907.828   3987876.477
10 0 59867  67422.000000  0    4807863.041  -1517300.227   4684843.656
10 0 59867  67542.000000  0    4121403.759  -1509901.827   5299363.016
10 0 59867  67662.000000  0    3363423.059  -1463488.948   5820653.950
10 0 59867  67782.000000  0    2547869.716  -1377752.158   6239584.822
10 0 59867  67902.000000  0    1689683.455  -1253319.700   6548826.905
10 0 59867  68022.000000  0     804516.863  -1091760.599   6742977.338
10 0 59867  68142.000000  0     -91553.108   -895566.233   6818647.686
10 0 59867  68262.000000  0    -982317.234   -668111.743   6774517.991
10 0 59867  68382.000000  0   -1851725.705   -413598.125   6611357.821
10 0 59867  68502.000000  0   -2684175.721   -136975.023   6332013.680
10 0 59867  68622.000000  0   -3464791.021    156154.252   5941363.578
10 0 59867  68742.000000  0   -4179690.110    459643.914   5446237.905
10 0 59867  68862.000000  0   -4816238.117    766931.405   4855305.969
10 0 59867  68982.000000  0   -5363277.389   1071175.470   4178930.077
10 0 59867  69102.000000  0   -5811331.676   1365404.211   3428987.333
10 0 59867  69222.000000  0   -6152779.056   1642669.628   2618663.270
10 0 59867  69342.000000  0   -6381990.847   1896205.253   1762219.607
10 0 59867  69462.000000  0   -6495432.773   2119583.199    874739.805
10 0 59867  69582.000000  0   -6491724.274   2306867.097    -28143.912
10 0 59867  69702.000000  0   -6371653.543   2452755.576   -930534.645
10 0 59867  69822.000000  0   -6138148.834   2552713.275  -1816559.536
10 0 59867  69942.000000  0   -5796207.389   2603086.775  -2670657.291
10 0 59867  70062.000000  0   -5352781.998   2601201.832  -3477858.787
10 0 59867  70182.000000  0   -4816629.681   2545438.672  -4224052.350
10 0 59867  70302.000000  0   -4198128.120   2435284.902  -4896229.373
10 0 59867  70422.000000  0   -3509064.164   2271365.198  -5482705.550
10 0 59867  70542.000000  0   -2762401.577   2055447.984  -5973314.678
10 0 59867  70662.000000  0   -1972032.709   1790429.112  -6359575.209
10 0 59867  70782.000000  0   -1152516.727   1480292.411  -6634825.470
10 0 59867  70902.000000  0    -318813.342   1130048.813  -6794326.619
10 0 59867  71022.000000  0     513985.135    745655.482  -6835334.852
10 0 59867  71142.000000  0    1330919.540    333916.672  -6757144.830
10 0 59867  71262.000000  0    2117427.764    -97634.387  -6561101.333
10 0 59867  71382.000000  0    2859598.197   -540869.678  -6250577.859
10 0 59867  71502.000000  0    3544412.486   -987215.066  -5830925.107
10 0 59867  71622.000000  0    4159971.907  -1427811.089  -5309387.283
10 0 59867  71742.000000  0    4695706.728  -1853684.915  -4694989.434
10 0 59867  71862.000000  0    5142563.684  -2255930.622  -3998392.181
10 0 59867  71982.000000  0    5493167.205  -2625893.176  -3231716.733
10 0 59867  72102.000000  0    5741951.627  -2955352.776  -2408341.204
10 0 59867  72222.000000  0    5885259.672  -3236705.359  -1542670.316
10 0 59867  72342.000000  0    5921404.456  -3463134.649   -649883.682
10 0 59867  72462.000000  0    5850693.391  -3628772.034    254333.945
10 0 59867  72582.000000  0    5675411.967  -3728839.404   1154074.342
99
